AQUA                    
1 27424U 02022A   26197.28834417  .00000341  00000+0  77532-4 0  9992
2 27424  98.4296 167.1566 0000983 113.3067  21.1629 14.62197882287525
ARIRANG-2 (KOMPSAT-2)   
1 29268U 06031A   26197.81753228  .00000123  00000+0  31558-4 0  9999
2 29268  97.8307  20.8312 0014133 345.6401 139.7997 14.64676110 65815
ARIRANG-3 (KOMPSAT-3)   
1 38338U 12025B   26197.86817741  .00000179  00000+0  44807-4 0  9995
2 38338  98.1186 154.8191 0006126  34.3527 325.8070 14.62229824755684
ARIRANG-5 (KOMPSAT-5)   
1 39227U 13042A   26197.82876075  .00000380  00000+0  31484-4 0  9995
2 39227  97.6202  24.1129 0005256  53.6310 306.5400 15.04496381708314
ALOS-2                  
1 39766U 14029A   26197.82999677  .00000773  00000+0  11037-3 0  9990
2 39766  97.9234 294.5699 0001595  91.1105 269.0289 14.79469553655968
ASNARO                  
1 40298U 14070A   26197.85646682  .00003686  00000+0  17730-3 0  9998
2 40298  97.3444 273.1732 0004865  84.0325 276.1464 15.19393088648517
ALSAT-1B                
1 41785U 16059C   26197.87200190  .00000373  00000+0  66375-4 0  9991
2 41785  97.7749 205.3551 0010404 124.9136 235.3051 14.72295901524949
ARKTIKA-M 1             
1 47719U 21016A   26195.40739072 -.00000301  00000+0  00000+0 0  9996
2 47719  63.2662  53.6722 7297332 270.0591  14.4994  2.00611590 39330
ARKTIKA-M 2             
1 58584U 23198A   26196.17500106  .00000129  00000+0  00000+0 0  9997
2 58584  63.2178 151.2342 6910736 267.3397  18.7345  2.00608092 18886
ALOS-4 (DAICHI-4)       
1 60182U 24123A   26197.84934957  .00000707  00000+0  10149-3 0  9994
2 60182  97.9221 294.5995 0001542  96.9048 263.2339 14.79472676110261
